{"type": "FeatureCollection", "features": [ {"type": "Feature", "properties": {"norad_id": 30035, "name": "FENGYUN 1C DEB", "group": "fengyun-1c-debris", "lat": -38.25361801192469, "lon": -88.09228395504152, "alt_km": 777.871894770853, "timestamp": "2025-12-15T11:38:37.426622+00:00", "meta": {"OBJECT_NAME": "FENGYUN 1C DEB", "OBJECT_ID": "1999-025NL", "EPOCH": "2025-12-14T17:44:21.882624", "MEAN_MOTION": 14.36975907, "ECCENTRICITY": 0.0115537, "INCLINATION": 99.2707, "RA_OF_ASC_NODE": 263.7054, "ARG_OF_PERICENTER": 56.1521, "MEAN_ANOMALY": 9.375, "EPHEMERIS_TYPE": 0, "CLASSIFICATION_TYPE": "U", "NORAD_CAT_ID": 30035, "ELEMENT_SET_NO": 999, "REV_AT_EPOCH": 99152, "BSTAR": 9.047113e-05, "MEAN_MOTION_DOT": 2.36e-06, "MEAN_MOTION_DDOT": 0}, "tle": {"line1": "1 30035U 99025NL  25348.73914216  .00000236  00000+0  90471-4 0  9996", "line2": "2 30035  99.2707 263.7054 0115537  56.1521   9.3750 14.36975907991527"}}, "geometry": {"type": "Point", "coordinates": [-88.09228395504152, -38.25361801192469]}}, {"type": "Feature", "properties": {"norad_id": 30036, "name": "FENGYUN 1C DEB", "group": "fengyun-1c-debris", "lat": 36.65461102846018, "lon": -157.28860924549815, "alt_km": 659.0072886971957, "timestamp": "2025-12-15T11:38:37.426632+00:00", "meta": {"OBJECT_NAME": "FENGYUN 1C DEB", "OBJECT_ID": "1999-025NM", "EPOCH": "2025-12-14T15:39:08.588736", "MEAN_MOTION": 14.4618923, "ECCENTRICITY": 0.01900371, "INCLINATION": 98.253, "RA_OF_ASC_NODE": 15.6996, "ARG_OF_PERICENTER": 201.8027, "MEAN_ANOMALY": 288.6494, "EPHEMERIS_TYPE": 0, "CLASSIFICATION_TYPE": "U", "NORAD_CAT_ID": 30036, "ELEMENT_SET_NO": 999, "REV_AT_EPOCH": 99204, "BSTAR": 0.0004102486, "MEAN_MOTION_DOT": 1.784e-05, "MEAN_MOTION_DDOT": 0}, "tle": {"line1": "1 30036U 99025NM  25348.65218274  .00001784  00000+0  41025-3 0  9998", "line2": "2 30036  98.2530  15.6996 0190037 201.8027 288.6494 14.46189230992040"}}, "geometry": {"type": "Point", "coordinates": [-157.28860924549815, 36.65461102846018]}}, {"type": "Feature", "properties": {"norad_id": 30037, "name": "FENGYUN 1C DEB", "group": "fengyun-1c-debris", "lat": 59.18109762299445, "lon": -49.191459126251544, "alt_km": 650.68771346629, "timestamp": "2025-12-15T11:38:37.426641+00:00", "meta": {"OBJECT_NAME": "FENGYUN 1C DEB", "OBJECT_ID": "1999-025NN", "EPOCH": "2025-12-14T22:04:30.582624", "MEAN_MOTION": 14.34120933, "ECCENTRICITY": 0.01743662, "INCLINATION": 98.3836, "RA_OF_ASC_NODE": 324.5718, "ARG_OF_PERICENTER": 48.6363, "MEAN_ANOMALY": 334.0363, "EPHEMERIS_TYPE": 0, "CLASSIFICATION_TYPE": "U", "NORAD_CAT_ID": 30037, "ELEMENT_SET_NO": 999, "REV_AT_EPOCH": 98819, "BSTAR": 0.00022911019, "MEAN_MOTION_DOT": 7.14e-06, "MEAN_MOTION_DDOT": 0}, "tle": {"line1": "1 30037U 99025NN  25348.91979841  .00000714  00000+0  22911-3 0  9997", "line2": "2 30037  98.3836 324.5718 0174366  48.6363 334.0363 14.34120933988196"}}, "geometry": {"type": "Point", "coordinates": [-49.191459126251544, 59.18109762299445]}}, {"type": "Feature", "properties": {"norad_id": 30038, "name": "FENGYUN 1C DEB", "group": "fengyun-1c-debris", "lat": 35.35870065866487, "lon": 163.046542532825, "alt_km": 636.1157214931463, "timestamp": "2025-12-15T11:38:37.426651+00:00", "meta": {"OBJECT_NAME": "FENGYUN 1C DEB", "OBJECT_ID": "1999-025NP", "EPOCH": "2025-12-14T21:47:21.109344", "MEAN_MOTION": 14.39298608, "ECCENTRICITY": 0.02580166, "INCLINATION": 98.3682, "RA_OF_ASC_NODE": 336.4871, "ARG_OF_PERICENTER": 96.3172, "MEAN_ANOMALY": 296.1847, "EPHEMERIS_TYPE": 0, "CLASSIFICATION_TYPE": "U", "NORAD_CAT_ID": 30038, "ELEMENT_SET_NO": 999, "REV_AT_EPOCH": 98922, "BSTAR": 0.00024233917, "MEAN_MOTION_DOT": 1.061e-05, "MEAN_MOTION_DDOT": 0}, "tle": {"line1": "1 30038U 99025NP  25348.90788321  .00001061  00000+0  24234-3 0  9994", "line2": "2 30038  98.3682 336.4871 0258016  96.3172 296.1847 14.39298608989221"}}, "geometry": {"type": "Point", "coordinates": [163.046542532825, 35.35870065866487]}}, {"type": "Feature", "properties": {"norad_id": 30040, "name": "FENGYUN 1C DEB", "group": "fengyun-1c-debris", "lat": -65.80471803076962, "lon": 166.94658418486821, "alt_km": 762.702496977493, "timestamp": "2025-12-15T11:38:37.426662+00:00", "meta": {"OBJECT_NAME": "FENGYUN 1C DEB", "OBJECT_ID": "1999-025NR", "EPOCH": "2025-12-14T13:20:48.321312", "MEAN_MOTION": 14.3714152, "ECCENTRICITY": 0.00322947, "INCLINATION": 98.2339, "RA_OF_ASC_NODE": 4.8574, "ARG_OF_PERICENTER": 307.4274, "MEAN_ANOMALY": 176.1942, "EPHEMERIS_TYPE": 0, "CLASSIFICATION_TYPE": "U", "NORAD_CAT_ID": 30040, "ELEMENT_SET_NO": 999, "REV_AT_EPOCH": 97954, "BSTAR": 0.0015352442, "MEAN_MOTION_DOT": 4.552e-05, "MEAN_MOTION_DDOT": 0}, "tle": {"line1": "1 30040U 99025NR  25348.55611483  .00004552  00000+0  15352-2 0  9990", "line2": "2 30040  98.2339   4.8574 0032294 307.4274 176.1942 14.37141520979540"}}, "geometry": {"type": "Point", "coordinates": [166.94658418486821, -65.80471803076962]}}, {"type": "Feature", "properties": {"norad_id": 30041, "name": "FENGYUN 1C DEB", "group": "fengyun-1c-debris", "lat": -44.705999159205184, "lon": 105.64717016226892, "alt_km": 861.6131669010474, "timestamp": "2025-12-15T11:38:37.426672+00:00", "meta": {"OBJECT_NAME": "FENGYUN 1C DEB", "OBJECT_ID": "1999-025NS", "EPOCH": "2025-12-14T19:26:44.217600", "MEAN_MOTION": 14.13189464, "ECCENTRICITY": 0.00348907, "INCLINATION": 99.467, "RA_OF_ASC_NODE": 95.4277, "ARG_OF_PERICENTER": 211.337, "MEAN_ANOMALY": 271.0948, "EPHEMERIS_TYPE": 0, "CLASSIFICATION_TYPE": "U", "NORAD_CAT_ID": 30041, "ELEMENT_SET_NO": 999, "REV_AT_EPOCH": 97316, "BSTAR": 0.00056253639, "MEAN_MOTION_DOT": 1.009e-05, "MEAN_MOTION_DDOT": 0}, "tle": {"line1": "1 30041U 99025NS  25348.81023400  .00001009  00000+0  56254-3 0  9997", "line2": "2 30041  99.4670  95.4277 0034890 211.3370 271.0948 14.13189464973168"}}, "geometry": {"type": "Point", "coordinates": [105.64717016226892, -44.705999159205184]}}, {"type": "Feature", "properties": {"norad_id": 30043, "name": "FENGYUN 1C DEB", "group": "fengyun-1c-debris", "lat": 65.18973914871518, "lon": 68.22267840526933, "alt_km": 689.7119092601524, "timestamp": "2025-12-15T11:38:37.426682+00:00", "meta": {"OBJECT_NAME": "FENGYUN 1C DEB", "OBJECT_ID": "1999-025NU", "EPOCH": "2025-12-14T20:09:01.316448", "MEAN_MOTION": 14.23585947, "ECCENTRICITY": 0.02837002, "INCLINATION": 98.6271, "RA_OF_ASC_NODE": 86.7608, "ARG_OF_PERICENTER": 124.8784, "MEAN_ANOMALY": 237.9418, "EPHEMERIS_TYPE": 0, "CLASSIFICATION_TYPE": "U", "NORAD_CAT_ID": 30043, "ELEMENT_SET_NO": 999, "REV_AT_EPOCH": 97375, "BSTAR": 0.00068223365, "MEAN_MOTION_DOT": 2.309e-05, "MEAN_MOTION_DDOT": 0}, "tle": {"line1": "1 30043U 99025NU  25348.83959857  .00002309  00000+0  68223-3 0  9998", "line2": "2 30043  98.6271  86.7608 0283700 124.8784 237.9418 14.23585947973757"}}, "geometry": {"type": "Point", "coordinates": [68.22267840526933, 65.18973914871518]}}, {"type": "Feature", "properties": {"norad_id": 30044, "name": "FENGYUN 1C DEB", "group": "fengyun-1c-debris", "lat": -40.76782310366014, "lon": 82.56077103347721, "alt_km": 703.4557177912011, "timestamp": "2025-12-15T11:38:37.426692+00:00", "meta": {"OBJECT_NAME": "FENGYUN 1C DEB", "OBJECT_ID": "1999-025NV", "EPOCH": "2025-12-14T11:27:26.345664", "MEAN_MOTION": 14.50690177, "ECCENTRICITY": 0.00795006, "INCLINATION": 98.2112, "RA_OF_ASC_NODE": 268.7293, "ARG_OF_PERICENTER": 161.8001, "MEAN_ANOMALY": 198.6069, "EPHEMERIS_TYPE": 0, "CLASSIFICATION_TYPE": "U", "NORAD_CAT_ID": 30044, "ELEMENT_SET_NO": 999, "REV_AT_EPOCH": 98064, "BSTAR": 0.0013489685, "MEAN_MOTION_DOT": 5.478e-05, "MEAN_MOTION_DDOT": 0}, "tle": {"line1": "1 30044U 99025NV  25348.47738826  .00005478  00000+0  13490-2 0  9995", "line2": "2 30044  98.2112 268.7293 0079500 161.8001 198.6069 14.50690177980647"}}, "geometry": {"type": "Point", "coordinates": [82.56077103347721, -40.76782310366014]}}, {"type": "Feature", "properties": {"norad_id": 30045, "name": "FENGYUN 1C DEB", "group": "fengyun-1c-debris", "lat": 78.84107134960928, "lon": -99.77697377953763, "alt_km": 745.2206229379308, "timestamp": "2025-12-15T11:38:37.426702+00:00", "meta": {"OBJECT_NAME": "FENGYUN 1C DEB", "OBJECT_ID": "1999-025NW", "EPOCH": "2025-12-14T13:56:50.037216", "MEAN_MOTION": 14.21623132, "ECCENTRICITY": 0.00946095, "INCLINATION": 99.1798, "RA_OF_ASC_NODE": 24.2225, "ARG_OF_PERICENTER": 108.1513, "MEAN_ANOMALY": 44.2992, "EPHEMERIS_TYPE": 0, "CLASSIFICATION_TYPE": "U", "NORAD_CAT_ID": 30045, "ELEMENT_SET_NO": 999, "REV_AT_EPOCH": 96714, "BSTAR": 0.0017629684, "MEAN_MOTION_DOT": 4.002e-05, "MEAN_MOTION_DDOT": 0}, "tle": {"line1": "1 30045U 99025NW  25348.58113469  .00004002  00000+0  17630-2 0  9990", "line2": "2 30045  99.1798  24.2225 0094609 108.1513  44.2992 14.21623132967143"}}, "geometry": {"type": "Point", "coordinates": [-99.77697377953763, 78.84107134960928]}}, {"type": "Feature", "properties": {"norad_id": 30047, "name": "FENGYUN 1C DEB", "group": "fengyun-1c-debris", "lat": 53.25228924531172, "lon": -19.76773991606354, "alt_km": 998.5176265374466, "timestamp": "2025-12-15T11:38:37.426712+00:00", "meta": {"OBJECT_NAME": "FENGYUN 1C DEB", "OBJECT_ID": "1999-025NY", "EPOCH": "2025-12-14T09:20:57.587424", "MEAN_MOTION": 13.94358877, "ECCENTRICITY": 0.0125673, "INCLINATION": 99.9192, "RA_OF_ASC_NODE": 145.5032, "ARG_OF_PERICENTER": 318.4106, "MEAN_ANOMALY": 70.1722, "EPHEMERIS_TYPE": 0, "CLASSIFICATION_TYPE": "U", "NORAD_CAT_ID": 30047, "ELEMENT_SET_NO": 999, "REV_AT_EPOCH": 95939, "BSTAR": 0.0008084218, "MEAN_MOTION_DOT": 1.097e-05, "MEAN_MOTION_DDOT": 0}, "tle": {"line1": "1 30047U 99025NY  25348.38955541  .00001097  00000+0  80842-3 0  9992", "line2": "2 30047  99.9192 145.5032 0125673 318.4106  70.1722 13.94358877959391"}}, "geometry": {"type": "Point", "coordinates": [-19.76773991606354, 53.25228924531172]}}]}